ION SCV-004             
1 50993U 22002K   26068.68892644  .00006538  00000+0  23198-3 0  9998
2 50993  97.2961 128.2294 0007216   1.6783 358.4480 15.29369331230088
STARLINK-32476          
1 61550U 24184U   26068.22499524  .00003614  00000+0  13414-3 0  9994
2 61550  53.1614  16.2567 0001418  79.6804 280.4357 15.30188754 78437
