[{"OBJECT_NAME":"ION SCV-004","OBJECT_ID":"2022-002K","EPOCH":"2026-03-09T16:32:03.244416","MEAN_MOTION":15.29369331,"ECCENTRICITY":0.00072157,"INCLINATION":97.2961,"RA_OF_ASC_NODE":128.2294,"ARG_OF_PERICENTER":1.6783,"MEAN_ANOMALY":358.448,"EPHEMERIS_TYPE":0,"CLASSIFICATION_TYPE":"U","NORAD_CAT_ID":50993,"ELEMENT_SET_NO":999,"REV_AT_EPOCH":23008,"BSTAR":0.00023198467,"MEAN_MOTION_DOT":6.538e-5,"MEAN_MOTION_DDOT":0},{"OBJECT_NAME":"STARLINK-32476","OBJECT_ID":"2024-184U","EPOCH":"2026-03-09T05:23:59.588736","MEAN_MOTION":15.30188754,"ECCENTRICITY":0.00014187,"INCLINATION":53.1614,"RA_OF_ASC_NODE":16.2567,"ARG_OF_PERICENTER":79.6804,"MEAN_ANOMALY":280.4357,"EPHEMERIS_TYPE":0,"CLASSIFICATION_TYPE":"U","NORAD_CAT_ID":61550,"ELEMENT_SET_NO":999,"REV_AT_EPOCH":7843,"BSTAR":0.00013413876,"MEAN_MOTION_DOT":3.614e-5,"MEAN_MOTION_DDOT":0}]
